[{"OBJECT_NAME":"YAOGAN-30 07C","OBJECT_ID":"2020-021C","EPOCH":"2026-03-09T23:27:46.361088","MEAN_MOTION":15.02093061,"ECCENTRICITY":0.00023968,"INCLINATION":34.9952,"RA_OF_ASC_NODE":93.0026,"ARG_OF_PERICENTER":261.0656,"MEAN_ANOMALY":98.9781,"EPHEMERIS_TYPE":0,"CLASSIFICATION_TYPE":"U","NORAD_CAT_ID":45462,"ELEMENT_SET_NO":999,"REV_AT_EPOCH":32548,"BSTAR":0.00030590838,"MEAN_MOTION_DOT":4.073e-5,"MEAN_MOTION_DDOT":0},{"OBJECT_NAME":"STARLINK-5401","OBJECT_ID":"2022-177BC","EPOCH":"2026-03-08T12:30:42.167232","MEAN_MOTION":15.02896874,"ECCENTRICITY":0.0001749,"INCLINATION":43.0079,"RA_OF_ASC_NODE":126.3191,"ARG_OF_PERICENTER":274.8194,"MEAN_ANOMALY":85.2449,"EPHEMERIS_TYPE":0,"CLASSIFICATION_TYPE":"U","NORAD_CAT_ID":54870,"ELEMENT_SET_NO":999,"REV_AT_EPOCH":17693,"BSTAR":0.0019979415,"MEAN_MOTION_DOT":0.0002715,"MEAN_MOTION_DDOT":0}]
